[{"OBJECT_NAME":"ONEWEB-0452","OBJECT_ID":"2022-012Y","EPOCH":"2026-01-24T07:23:42.006912","MEAN_MOTION":13.17648779,"ECCENTRICITY":0.00019747,"INCLINATION":87.908,"RA_OF_ASC_NODE":34.4739,"ARG_OF_PERICENTER":82.2999,"MEAN_ANOMALY":277.8356,"EPHEMERIS_TYPE":0,"CLASSIFICATION_TYPE":"U","NORAD_CAT_ID":51644,"ELEMENT_SET_NO":999,"REV_AT_EPOCH":19472,"BSTAR":0.00015788145,"MEAN_MOTION_DOT":7.4e-7,"MEAN_MOTION_DDOT":0},{"OBJECT_NAME":"ONEWEB-0456","OBJECT_ID":"2022-012AA","EPOCH":"2026-01-24T07:59:39.139296","MEAN_MOTION":13.10372409,"ECCENTRICITY":0.00016672,"INCLINATION":87.8778,"RA_OF_ASC_NODE":64.9075,"ARG_OF_PERICENTER":96.439,"MEAN_ANOMALY":263.6927,"EPHEMERIS_TYPE":0,"CLASSIFICATION_TYPE":"U","NORAD_CAT_ID":51646,"ELEMENT_SET_NO":999,"REV_AT_EPOCH":19050,"BSTAR":0.0018069668,"MEAN_MOTION_DOT":6.43e-6,"MEAN_MOTION_DDOT":0},{"OBJECT_NAME":"ONEWEB-0457","OBJECT_ID":"2022-012AB","EPOCH":"2026-01-24T03:46:16.392288","MEAN_MOTION":13.10376183,"ECCENTRICITY":0.00022322,"INCLINATION":87.8767,"RA_OF_ASC_NODE":64.9828,"ARG_OF_PERICENTER":103.3616,"MEAN_ANOMALY":256.776,"EPHEMERIS_TYPE":0,"CLASSIFICATION_TYPE":"U","NORAD_CAT_ID":51647,"ELEMENT_SET_NO":999,"REV_AT_EPOCH":19048,"BSTAR":0.00047117509,"MEAN_MOTION_DOT":1.77e-6,"MEAN_MOTION_DDOT":0},{"OBJECT_NAME":"ONEWEB-0458","OBJECT_ID":"2022-012AC","EPOCH":"2026-01-24T02:27:24.466464","MEAN_MOTION":13.10372398,"ECCENTRICITY":0.00019202,"INCLINATION":87.8771,"RA_OF_ASC_NODE":64.971,"ARG_OF_PERICENTER":93.0392,"MEAN_ANOMALY":267.0955,"EPHEMERIS_TYPE":0,"CLASSIFICATION_TYPE":"U","NORAD_CAT_ID":51648,"ELEMENT_SET_NO":999,"REV_AT_EPOCH":19043,"BSTAR":0.0018483558,"MEAN_MOTION_DOT":6.58e-6,"MEAN_MOTION_DDOT":0},{"OBJECT_NAME":"ONEWEB-0461","OBJECT_ID":"2022-012AD","EPOCH":"2026-01-24T06:05:54.691872","MEAN_MOTION":13.17651038,"ECCENTRICITY":0.00018717,"INCLINATION":87.9096,"RA_OF_ASC_NODE":34.4488,"ARG_OF_PERICENTER":94.563,"MEAN_ANOMALY":265.5715,"EPHEMERIS_TYPE":0,"CLASSIFICATION_TYPE":"U","NORAD_CAT_ID":51649,"ELEMENT_SET_NO":999,"REV_AT_EPOCH":19493,"BSTAR":-4.5894336e-5,"MEAN_MOTION_DOT":-5.0e-8,"MEAN_MOTION_DDOT":0},{"OBJECT_NAME":"ONEWEB-0463","OBJECT_ID":"2022-012AE","EPOCH":"2026-01-24T07:28:33.380544","MEAN_MOTION":13.17649753,"ECCENTRICITY":0.00018418,"INCLINATION":87.9077,"RA_OF_ASC_NODE":34.4744,"ARG_OF_PERICENTER":94.5945,"MEAN_ANOMALY":265.5397,"EPHEMERIS_TYPE":0,"CLASSIFICATION_TYPE":"U","NORAD_CAT_ID":51650,"ELEMENT_SET_NO":999,"REV_AT_EPOCH":19472,"BSTAR":0.00012642112,"MEAN_MOTION_DOT":6.2e-7,"MEAN_MOTION_DDOT":0},{"OBJECT_NAME":"ONEWEB-0464","OBJECT_ID":"2022-012AF","EPOCH":"2026-01-24T04:12:34.515936","MEAN_MOTION":13.10373431,"ECCENTRICITY":0.0001587,"INCLINATION":87.8761,"RA_OF_ASC_NODE":64.9886,"ARG_OF_PERICENTER":95.6659,"MEAN_ANOMALY":264.4649,"EPHEMERIS_TYPE":0,"CLASSIFICATION_TYPE":"U","NORAD_CAT_ID":51651,"ELEMENT_SET_NO":999,"REV_AT_EPOCH":19046,"BSTAR":0.0020762858,"MEAN_MOTION_DOT":7.38e-6,"MEAN_MOTION_DDOT":0},{"OBJECT_NAME":"ONEWEB-0468","OBJECT_ID":"2022-012AG","EPOCH":"2026-01-24T08:02:02.888160","MEAN_MOTION":13.10371734,"ECCENTRICITY":0.000171,"INCLINATION":87.8763,"RA_OF_ASC_NODE":64.9506,"ARG_OF_PERICENTER":91.0002,"MEAN_ANOMALY":269.1321,"EPHEMERIS_TYPE":0,"CLASSIFICATION_TYPE":"U","NORAD_CAT_ID":51652,"ELEMENT_SET_NO":999,"REV_AT_EPOCH":19046,"BSTAR":0.0015069414,"MEAN_MOTION_DOT":5.39e-6,"MEAN_MOTION_DDOT":0},{"OBJECT_NAME":"ONEWEB-0473","OBJECT_ID":"2022-012AH","EPOCH":"2026-01-24T04:00:37.323360","MEAN_MOTION":13.10376308,"ECCENTRICITY":0.00017149,"INCLINATION":87.8759,"RA_OF_ASC_NODE":64.9865,"ARG_OF_PERICENTER":93.1149,"MEAN_ANOMALY":267.0175,"EPHEMERIS_TYPE":0,"CLASSIFICATION_TYPE":"U","NORAD_CAT_ID":51653,"ELEMENT_SET_NO":999,"REV_AT_EPOCH":19044,"BSTAR":0.0015870785,"MEAN_MOTION_DOT":5.67e-6,"MEAN_MOTION_DDOT":0},{"OBJECT_NAME":"ONEWEB-0474","OBJECT_ID":"2022-012AJ","EPOCH":"2026-01-24T03:48:39.679776","MEAN_MOTION":13.1037717,"ECCENTRICITY":0.00016428,"INCLINATION":87.8777,"RA_OF_ASC_NODE":64.959,"ARG_OF_PERICENTER":90.1071,"MEAN_ANOMALY":270.0244,"EPHEMERIS_TYPE":0,"CLASSIFICATION_TYPE":"U","NORAD_CAT_ID":51654,"ELEMENT_SET_NO":999,"REV_AT_EPOCH":19043,"BSTAR":0.00068479781,"MEAN_MOTION_DOT":2.52e-6,"MEAN_MOTION_DDOT":0},{"OBJECT_NAME":"ONEWEB-0475","OBJECT_ID":"2022-012AK","EPOCH":"2026-01-23T17:10:46.304544","MEAN_MOTION":13.17649753,"ECCENTRICITY":0.00017607,"INCLINATION":87.9083,"RA_OF_ASC_NODE":34.5844,"ARG_OF_PERICENTER":67.9937,"MEAN_ANOMALY":292.1382,"EPHEMERIS_TYPE":0,"CLASSIFICATION_TYPE":"U","NORAD_CAT_ID":51655,"ELEMENT_SET_NO":999,"REV_AT_EPOCH":19466,"BSTAR":0.00028651598,"MEAN_MOTION_DOT":1.24e-6,"MEAN_MOTION_DDOT":0},{"OBJECT_NAME":"ONEWEB-0490","OBJECT_ID":"2022-138A","EPOCH":"2026-01-24T05:37:24.684672","MEAN_MOTION":13.19726544,"ECCENTRICITY":0.00015978,"INCLINATION":87.9251,"RA_OF_ASC_NODE":333.6084,"ARG_OF_PERICENTER":76.7634,"MEAN_ANOMALY":283.3677,"EPHEMERIS_TYPE":0,"CLASSIFICATION_TYPE":"U","NORAD_CAT_ID":54113,"ELEMENT_SET_NO":999,"REV_AT_EPOCH":15784,"BSTAR":-3.2571065e-5,"MEAN_MOTION_DOT":0,"MEAN_MOTION_DDOT":0},{"OBJECT_NAME":"ONEWEB-0492","OBJECT_ID":"2022-138B","EPOCH":"2026-01-24T02:35:26.353824","MEAN_MOTION":13.19726854,"ECCENTRICITY":0.00015492,"INCLINATION":87.9242,"RA_OF_ASC_NODE":333.6451,"ARG_OF_PERICENTER":81.3361,"MEAN_ANOMALY":278.7947,"EPHEMERIS_TYPE":0,"CLASSIFICATION_TYPE":"U","NORAD_CAT_ID":54114,"ELEMENT_SET_NO":999,"REV_AT_EPOCH":15783,"BSTAR":0.0002798133,"MEAN_MOTION_DOT":1.25e-6,"MEAN_MOTION_DDOT":0},{"OBJECT_NAME":"ONEWEB-0495","OBJECT_ID":"2022-138C","EPOCH":"2026-01-24T05:41:57.882336","MEAN_MOTION":13.19719178,"ECCENTRICITY":0.00011156,"INCLINATION":87.9247,"RA_OF_ASC_NODE":333.618,"ARG_OF_PERICENTER":94.3928,"MEAN_ANOMALY":265.7332,"EPHEMERIS_TYPE":0,"CLASSIFICATION_TYPE":"U","NORAD_CAT_ID":54115,"ELEMENT_SET_NO":999,"REV_AT_EPOCH":15783,"BSTAR":-0.001237569,"MEAN_MOTION_DOT":-4.82e-6,"MEAN_MOTION_DDOT":0},{"OBJECT_NAME":"ONEWEB-0497","OBJECT_ID":"2022-138D","EPOCH":"2026-01-24T06:00:09.277632","MEAN_MOTION":13.19727113,"ECCENTRICITY":0.00016938,"INCLINATION":87.9243,"RA_OF_ASC_NODE":333.6084,"ARG_OF_PERICENTER":78.1497,"MEAN_ANOMALY":281.9826,"EPHEMERIS_TYPE":0,"CLASSIFICATION_TYPE":"U","NORAD_CAT_ID":54116,"ELEMENT_SET_NO":999,"REV_AT_EPOCH":15782,"BSTAR":0.00027396989,"MEAN_MOTION_DOT":1.23e-6,"MEAN_MOTION_DDOT":0},{"OBJECT_NAME":"ONEWEB-0499","OBJECT_ID":"2022-138E","EPOCH":"2026-01-24T05:36:15.885216","MEAN_MOTION":13.19725616,"ECCENTRICITY":0.00017845,"INCLINATION":87.924,"RA_OF_ASC_NODE":333.6227,"ARG_OF_PERICENTER":72.1967,"MEAN_ANOMALY":287.9361,"EPHEMERIS_TYPE":0,"CLASSIFICATION_TYPE":"U","NORAD_CAT_ID":54117,"ELEMENT_SET_NO":999,"REV_AT_EPOCH":15783,"BSTAR":4.7225095e-5,"MEAN_MOTION_DOT":3.2e-7,"MEAN_MOTION_DDOT":0},{"OBJECT_NAME":"ONEWEB-0500","OBJECT_ID":"2022-138F","EPOCH":"2026-01-24T05:39:40.324896","MEAN_MOTION":13.19727744,"ECCENTRICITY":0.00017669,"INCLINATION":87.9244,"RA_OF_ASC_NODE":333.6105,"ARG_OF_PERICENTER":81.1673,"MEAN_ANOMALY":278.966,"EPHEMERIS_TYPE":0,"CLASSIFICATION_TYPE":"U","NORAD_CAT_ID":54118,"ELEMENT_SET_NO":999,"REV_AT_EPOCH":15784,"BSTAR":0.00019780709,"MEAN_MOTION_DOT":9.2e-7,"MEAN_MOTION_DDOT":0}]
