ONEWEB-0452             
1 51644U 22012Y   26024.30812508  .00000074  00000+0  15788-3 0  9990
2 51644  87.9080  34.4739 0001974  82.2999 277.8356 13.17648779194728
ONEWEB-0456             
1 51646U 22012AA  26024.33309189  .00000643  00000+0  18070-2 0  9999
2 51646  87.8778  64.9075 0001667  96.4390 263.6927 13.10372409190501
ONEWEB-0457             
1 51647U 22012AB  26024.15713417  .00000177  00000+0  47118-3 0  9991
2 51647  87.8767  64.9828 0002232 103.3616 256.7760 13.10376183190482
ONEWEB-0458             
1 51648U 22012AC  26024.10236651  .00000658  00000+0  18484-2 0  9994
2 51648  87.8771  64.9710 0001920  93.0392 267.0955 13.10372398190437
ONEWEB-0461             
1 51649U 22012AD  26024.25410523 -.00000005  00000+0 -45894-4 0  9998
2 51649  87.9096  34.4488 0001871  94.5630 265.5715 13.17651038194933
ONEWEB-0463             
1 51650U 22012AE  26024.31149746  .00000062  00000+0  12642-3 0  9998
2 51650  87.9077  34.4744 0001841  94.5945 265.5397 13.17649753194729
ONEWEB-0464             
1 51651U 22012AF  26024.17539949  .00000738  00000+0  20763-2 0  9993
2 51651  87.8761  64.9886 0001587  95.6659 264.4649 13.10373431190460
ONEWEB-0468             
1 51652U 22012AG  26024.33475565  .00000539  00000+0  15069-2 0  9997
2 51652  87.8763  64.9506 0001710  91.0002 269.1321 13.10371734190465
ONEWEB-0473             
1 51653U 22012AH  26024.16709865  .00000567  00000+0  15871-2 0  9994
2 51653  87.8759  64.9865 0001714  93.1149 267.0175 13.10376308190442
ONEWEB-0474             
1 51654U 22012AJ  26024.15879259  .00000252  00000+0  68480-3 0  9995
2 51654  87.8777  64.9590 0001642  90.1071 270.0244 13.10377170190437
ONEWEB-0475             
1 51655U 22012AK  26023.71581371  .00000124  00000+0  28652-3 0  9997
2 51655  87.9083  34.5844 0001760  67.9937 292.1382 13.17649753194661
ONEWEB-0490             
1 54113U 22138A   26024.23431348  .00000000  00000+0 -32571-4 0  9994
2 54113  87.9251 333.6084 0001597  76.7634 283.3677 13.19726544157843
ONEWEB-0492             
1 54114U 22138B   26024.10794391  .00000125  00000+0  27981-3 0  9996
2 54114  87.9242 333.6451 0001549  81.3361 278.7947 13.19726854157839
ONEWEB-0495             
1 54115U 22138C   26024.23747549 -.00000482  00000+0 -12376-2 0  9993
2 54115  87.9247 333.6180 0001115  94.3928 265.7332 13.19719178157831
ONEWEB-0497             
1 54116U 22138D   26024.25010738  .00000123  00000+0  27397-3 0  9999
2 54116  87.9243 333.6084 0001693  78.1497 281.9826 13.19727113157828
ONEWEB-0499             
1 54117U 22138E   26024.23351719  .00000032  00000+0  47225-4 0  9997
2 54117  87.9240 333.6227 0001784  72.1967 287.9361 13.19725616157839
ONEWEB-0500             
1 54118U 22138F   26024.23588339  .00000092  00000+0  19781-3 0  9999
2 54118  87.9244 333.6105 0001766  81.1673 278.9660 13.19727744157840
